[{"OBJECT_NAME":"STARLINK-31186","OBJECT_ID":"2024-038H","EPOCH":"2026-03-09T06:49:36.011712","MEAN_MOTION":15.27572946,"ECCENTRICITY":0.00011635,"INCLINATION":43.0056,"RA_OF_ASC_NODE":29.5244,"ARG_OF_PERICENTER":274.0063,"MEAN_ANOMALY":86.0656,"EPHEMERIS_TYPE":0,"CLASSIFICATION_TYPE":"U","NORAD_CAT_ID":59030,"ELEMENT_SET_NO":999,"REV_AT_EPOCH":11469,"BSTAR":-4.3729037e-5,"MEAN_MOTION_DOT":-1.465e-5,"MEAN_MOTION_DDOT":0},{"OBJECT_NAME":"CZ-2D R\/B","OBJECT_ID":"2025-227B","EPOCH":"2026-03-09T22:11:26.043072","MEAN_MOTION":15.30393637,"ECCENTRICITY":0.00198129,"INCLINATION":80.1514,"RA_OF_ASC_NODE":267.3771,"ARG_OF_PERICENTER":270.3655,"MEAN_ANOMALY":89.5307,"EPHEMERIS_TYPE":0,"CLASSIFICATION_TYPE":"U","NORAD_CAT_ID":65946,"ELEMENT_SET_NO":999,"REV_AT_EPOCH":2254,"BSTAR":0.00032251975,"MEAN_MOTION_DOT":9.557e-5,"MEAN_MOTION_DDOT":0}]
